STARLINK-4426           
1 53484C 22099V   26125.04631944 -.00035824  00000+0 -24880-2 0  1251
2 53484  97.5285 246.6634 0001489 148.2231 291.2767 15.05662702    15
STARLINK-4430           
1 53485C 22099W   26125.03590278 -.00042060  00000+0 -29212-2 0  1259
2 53485  97.5292 245.5936 0000373 198.7702 236.6096 15.05665732    15
STARLINK-4431           
1 53486C 22099X   26125.08798611  .00131660  00000+0  49887-2 0  1259
2 53486  97.6060 246.6663 0001617  76.2306 306.4265 15.26895177    16
STARLINK-4432           
1 53487C 22099Y   26125.09493056 -.00015525  00000+0 -10781-2 0  1250
2 53487  97.5269 246.7409 0000628 169.8446 277.9643 15.05656507    12
STARLINK-4421           
1 53488C 22099Z   26125.01229167 -.00045368  00000+0 -31494-2 0  1255
2 53488  97.5279 246.7210 0002417 134.7108 345.3109 15.05683010    14
STARLINK-4392           
1 53489C 22099AA  26125.07201389 -.00009041  00000+0 -62779-3 0  1257
2 53489  97.5284 245.5674 0000670 107.0478  43.8613 15.05657911    15
STARLINK-4387           
1 53490C 22099AB  26125.05881944  .00213890  00000+0  86696-2 0  1258
2 53490  97.6041 247.4292 0001175  84.3585 245.8828 15.24608691    17
STARLINK-4450           
1 53491C 22099AC  26125.05881944  .00401350  00000+0  12137-1 0  1257
2 53491  97.6041 246.6284 0001561  76.8626 189.7188 15.34062500    10
STARLINK-4451           
1 53492C 22099AD  26125.07479167  .00358150  00000+0  18890-1 0  1251
2 53492  97.6013 245.8929 0001780  79.9151 328.8116 15.15459244    18
STARLINK-4340           
1 53494C 22099AF  26125.06298611 -.00021774  00000+0 -15116-2 0  1255
2 53494  97.5286 246.7521 0002277 160.3698 249.3719 15.05669964    19
STARLINK-4429           
1 53495C 22099AG  26125.06090278 -.00020674  00000+0 -14358-2 0  1250
2 53495  97.5281 245.5756 0000191 131.2052  49.6186 15.05655315    10
STARLINK-4453           
1 53497C 22099AJ  26125.04770833 -.00043492  00000+0 -30205-2 0  1254
2 53497  97.5280 245.5359 0000624  92.0946 332.2624 15.05668327    12
STARLINK-4439           
1 53498C 22099AK  26125.05118056 -.00048851  00000+0 -33929-2 0  1259
2 53498  97.5286 246.6446 0000416 232.8270 278.0142 15.05669164    13
STARLINK-4454           
1 53499C 22099AL  26125.05395833  .00305850  00000+0  12337-1 0  1252
2 53499  97.6027 247.2343 0001811  74.8586 238.5059 15.24723974    14
STARLINK-4455           
1 53500C 22099AM  26125.09006944  .00497810  00000+0  19255-1 0  1255
2 53500  97.6060 247.5338 0001444  86.7059 296.3070 15.26028947    15
STARLINK-4434           
1 53501C 22099AN  26125.04423611  .00413650  00000+0  15944-1 0  1256
2 53501  97.6060 246.5545 0001588  79.6218  45.2870 15.26185666    13
STARLINK-4435           
1 53502C 22099AP  26125.07965278  .00374440  00000+0  12916-1 0  1259
2 53502  97.6039 247.6595 0001355  80.4984 230.3193 15.29856089    11
STARLINK-4448           
1 53504C 22099AR  26125.03729167  .00400690  00000+0  14285-1 0  1250
2 53504  97.6043 246.4316 0001417  99.0956  73.6389 15.28767213    14
STARLINK-4446           
1 53505C 22099AS  26125.09354167  .00066999  00000+0  51491-3 0  1253
2 53505  97.6045 251.9901 0001156  43.2780 215.7009 15.72000503    13
STARLINK-4437           
1 53506C 22099AT  26125.09979167  .00392910  00000+0  12933-1 0  1258
2 53506  97.6040 247.6551 0001707  75.8146 323.2382 15.31359983    14
STARLINK-4443           
1 53508C 22099AV  26125.08937500 -.00009519  00000+0 -66111-3 0  1255
2 53508  97.5282 246.7561 0001061 168.6413  84.0685 15.05649944    13
STARLINK-4402           
1 53509C 22099AW  26125.09979167  .00363640  00000+0  12840-1 0  1256
2 53509  97.6035 246.5406 0001722  68.2645 261.0870 15.29099508    17
STARLINK-4503           
1 53528C 22101B   26125.03659722  .00043509  00000+0  27283-2 0  1254
2 53528  53.2138 181.1709 0001177  86.4888  18.1328 15.08817130    10
STARLINK-4478           
1 53529C 22101C   26125.02895833  .00051399  00000+0  28716-2 0  1257
2 53529  53.2122 179.7834 0001322 300.1562 183.8688 15.12984166    11
STARLINK-4482           
1 53530C 22101D   26125.05673611  .00038975  00000+0  24443-2 0  1258
2 53530  53.2140 181.2973 0001084  87.7294  86.2045 15.08814122    12
STARLINK-4487           
1 53531C 22101E   26125.07965278  .00042513  00000+0  26660-2 0  1250
2 53531  53.2136 180.9769 0001198  93.3223 305.3104 15.08815625    18
STARLINK-4483           
1 53532C 22101F   26125.03590278  .00049900  00000+0  31299-2 0  1252
2 53532  53.2147 181.1689 0001022  83.9405 256.9188 15.08805005    12
STARLINK-4493           
1 53533C 22101G   26125.01159722  .00043005  00000+0  26970-2 0  1256
2 53533  53.2146 181.2680 0001186  87.3295 141.4399 15.08813626    10
STARLINK-4138           
1 53535C 22101J   26125.09909722  .00039824  00000+0  24960-2 0  1250
2 53535  53.2145 180.8854 0001252  85.6683 278.6218 15.08836176    13
STARLINK-4053           
1 53536C 22101K   26125.06645833  .00038805  00000+0  24333-2 0  1250
2 53536  53.2145 170.9564 0001103  78.1467 243.8227 15.08820140    12
STARLINK-4120           
1 53537C 22101L   26125.04979167  .00044869  00000+0  28135-2 0  1250
2 53537  53.2146 181.0778 0001231  86.4370   4.7227 15.08817967    18
STARLINK-4123           
1 53539C 22101N   26125.10534722  .00036167  00000+0  22677-2 0  1250
2 53539  53.2143 180.8612 0001023  89.0270 329.2367 15.08825179    12
STARLINK-4486           
1 53540C 22101P   26125.03381944  .00045183  00000+0  28349-2 0  1250
2 53540  53.2134 171.5365 0001293  94.2821 224.8821 15.08795491    13
STARLINK-4485           
1 53541C 22101Q   26125.09145833  .00041761  00000+0  26182-2 0  1253
2 53541  53.2138 180.9242 0001257  87.0032 295.7770 15.08825295    16
STARLINK-4489           
1 53542C 22101R   26125.03173611  .00037808  00000+0  23708-2 0  1251
2 53542  53.2139 171.1913 0001230  86.2956  86.9238 15.08820891    18
STARLINK-4297           
1 53543C 22101S   26125.07965278  .00036173  00000+0  22683-2 0  1259
2 53543  53.2147 171.0411 0001156  92.4661 261.1047 15.08820926    13
STARLINK-4303           
1 53544C 22101T   26125.07548611  .00033937  00000+0  21291-2 0  1257
2 53544  53.2136 170.9955 0001378  93.6561 357.2957 15.08803252    11
STARLINK-4475           
1 53545C 22101U   26125.02965278  .00039210  00000+0  24592-2 0  1252
2 53545  53.2143 171.1982 0001066  81.6449  60.2453 15.08812231    18
STARLINK-4477           
1 53546C 22101V   26125.07687500  .00025824  00000+0  16193-2 0  1251
2 53546  53.2138 160.5185 0000678 103.9824 269.7273 15.08828113    15
STARLINK-4474           
1 53547C 22101W   26125.04562500  .00040245  00000+0  25235-2 0  1252
2 53547  53.2135 171.1291 0001202  86.3349 182.3497 15.08821024    11
STARLINK-4513           
1 53548C 22101X   26125.04909722  .00043345  00000+0  27182-2 0  1251
2 53548  53.2133 171.1128 0001026  89.9339 277.6244 15.08815481    19
STARLINK-4514           
1 53551C 22101AA  26125.07409722  .00031495  00000+0  19747-2 0  1254
2 53551  53.2134 171.0006 0001263  92.5069  30.9160 15.08828281    10
STARLINK-4495           
1 53552C 22101AB  26125.08173611  .00028417  00000+0  17820-2 0  1251
2 53552  53.2141 170.9685 0001247  95.4829 149.4654 15.08824403    14
STARLINK-4501           
1 53553C 22101AC  26125.08937500  .00031132  00000+0  19521-2 0  1255
2 53553  53.2144 170.8063 0001149  94.6171 231.9203 15.08823918    16
STARLINK-4506           
1 53554C 22101AD  26125.08243056  .00030991  00000+0  19433-2 0  1256
2 53554  53.2142 170.9717 0001041  87.6280 195.8801 15.08825473    16
STARLINK-4504           
1 53555C 22101AE  26125.07062500  .00029448  00000+0  18465-2 0  1258
2 53555  53.2136 171.0164 0001224  89.2135  75.3455 15.08827190    13
STARLINK-4505           
1 53556C 22101AF  26125.07618056  .00034110  00000+0  21392-2 0  1257
2 53556  53.2146 170.9892 0001179  89.6547 205.1021 15.08817540    11
STARLINK-4502           
1 53557C 22101AG  26125.09979167  .00028250  00000+0  17714-2 0  1254
2 53557  53.2144 170.8876 0001206  95.2570 267.8154 15.08826306    13
STARLINK-4494           
1 53558C 22101AH  26125.09006944  .00026319  00000+0  16503-2 0  1258
2 53558  53.2140 165.6526 0001227  93.6101 264.2977 15.08827172    15
STARLINK-4508           
1 53559C 22101AJ  26125.04909722  .01087000  00000+0  14166-1 0  1257
2 53559  53.2188 166.1610 0001095  84.7731  63.4543 15.57555285    16
STARLINK-4564           
1 53560C 22101AK  26125.06854167  .00029914  00000+0  18757-2 0  1253
2 53560  53.2142 161.2110 0001272  93.9044 274.2085 15.08824898    13
STARLINK-4563           
1 53561C 22101AL  26125.07201389  .00035092  00000+0  22005-2 0  1252
2 53561  53.2145 171.0069 0001223  90.1112 201.9965 15.08821786    17
STARLINK-4565           
1 53562C 22101AM  26125.06159722  .00032432  00000+0  20339-2 0  1258
2 53562  53.2145 161.1981 0001313  95.1323 255.2709 15.08818940    16
STARLINK-4561           
1 53563C 22101AN  26125.05118056  .00029643  00000+0  18589-2 0  1257
2 53563  53.2142 161.3281 0000944  99.9751 153.7556 15.08823822    12
STARLINK-4577           
1 53564C 22101AP  26125.07201389  .00026401  00000+0  16553-2 0  1250
2 53564  53.2151 161.0778 0001291  89.3959 357.6728 15.08830663    17
STARLINK-4575           
1 53565C 22101AQ  26125.04770833  .00032224  00000+0  20210-2 0  1258
2 53565  53.2144 161.2706 0001188  95.8347 173.8808 15.08817214    15
STARLINK-4576           
1 53566C 22101AR  26125.08520833  .00019172  00000+0  12021-2 0  1254
2 53566  53.2148 160.9392 0001184  88.8605 109.9608 15.08831189    17
STARLINK-4585           
1 53567C 22101AS  26125.04562500  .00034483  00000+0  21616-2 0  1250
2 53567  53.2145 161.2319 0001359  99.5201 184.0383 15.08833139    14
STARLINK-4583           
1 53568C 22101AT  26125.07756944  .00022441  00000+0  14072-2 0  1250
2 53568  53.2136 160.8556 0001196  90.8962 126.4871 15.08826335    12
